      2.10          N: GNSS NAV DATA                        RINEX VERSION / TYPE
fic2rin                                 10/22/2018 00:21:21 PGM / RUN BY / DATE
                                                            END OF HEADER
21 18 10 21 22  0  0.0-3.174655139446e-04 6.252776074689e-12 0.000000000000e+00
    6.400000000000e+01 4.478125000000e+01 5.286648781570e-09-1.035453106367e+00
    2.738088369370e-06 2.439143066294e-02 4.570931196213e-06 5.153598064423e+03
    7.920000000000e+04-4.116445779800e-07 8.466894599231e-01 3.352761268616e-07
    9.454997029435e-01 2.907812500000e+02-1.518350009990e+00-8.943586822004e-09
    4.403754862638e-10 1.000000000000e+00 2.024000000000e+03 0.000000000000e+00
    2.400000000000e+00 0.000000000000e+00-9.778887033463e-09 6.400000000000e+01
    7.200600000000e+04 4.000000000000e+00
17 18 10 21 22  0  0.0-4.126224666834e-05 4.774847184308e-12 0.000000000000e+00
    6.900000000000e+01 4.237500000000e+01 3.549076404706e-09 2.910849895531e+00
    2.233311533928e-06 1.272067450918e-02 1.131929457188e-05 5.153635560989e+03
    7.920000000000e+04 9.872019290924e-08-9.564891216112e-02-2.421438694000e-08
    9.837814968481e-01 1.691250000000e+02-1.769248908936e+00-7.352449116161e-09
    2.664396697103e-10 1.000000000000e+00 2.024000000000e+03 0.000000000000e+00
    2.400000000000e+00 0.000000000000e+00-1.117587089539e-08 6.900000000000e+01
    7.200600000000e+04 4.000000000000e+00
32 18 10 21 22  0  0.0-3.850581124425e-04 1.296029950026e-11 0.000000000000e+00
    4.100000000000e+01 2.965625000000e+01 4.464471677451e-09-2.611117904570e+00
    1.603737473488e-06 2.317947102711e-03 1.169927418232e-05 5.153721849442e+03
    7.920000000000e+04 2.793967723846e-08 2.986763084591e+00-1.061707735062e-07
    9.574240008726e-01 1.516250000000e+02-2.580507616500e+00-7.891400137062e-09
    2.053656971627e-10 1.000000000000e+00 2.024000000000e+03 0.000000000000e+00
    2.400000000000e+00 0.000000000000e+00 4.656612873077e-10 4.100000000000e+01
    7.200600000000e+04 4.000000000000e+00
16 18 10 21 22  0  0.0 3.027264028788e-06-1.932676241267e-12 0.000000000000e+00
    4.700000000000e+01-7.168750000000e+01 3.938021177246e-09-2.408156363139e+00
   -3.704801201820e-06 1.007180125453e-02 8.326023817062e-06 5.153714073181e+03
    7.920000000000e+04 5.587935447693e-09-1.110053275249e+00-1.173466444016e-07
    9.854108072298e-01 2.323437500000e+02 5.186317088753e-01-7.724964632927e-09
   -4.185888644778e-10 1.000000000000e+00 2.024000000000e+03 0.000000000000e+00
    2.400000000000e+00 0.000000000000e+00-1.071020960808e-08 4.700000000000e+01
    7.200600000000e+04 4.000000000000e+00
30 18 10 21 22  0  0.0 6.813555955887e-06-5.570655048359e-12 0.000000000000e+00
    7.200000000000e+01 3.600000000000e+01 5.385224316209e-09 5.569855778279e-02
    1.739710569382e-06 3.598833340220e-03 3.438442945480e-06 5.153669570923e+03
    7.920000000000e+04 7.450580596924e-09-2.193816856386e+00 3.725290298462e-09
    9.427315400955e-01 3.011250000000e+02-2.974846168547e+00-8.699290931814e-09
    3.678724662220e-11 1.000000000000e+00 2.024000000000e+03 0.000000000000e+00
    2.400000000000e+00 0.000000000000e+00 3.725290298462e-09 7.200000000000e+01
    7.200600000000e+04 4.000000000000e+00
26 18 10 21 22  0  0.0 1.627253368497e-05 1.125499693444e-11 0.000000000000e+00
    4.600000000000e+01-7.190625000000e+01 4.719482299667e-09-1.449750426782e+00
   -3.669410943985e-06 3.067689249292e-03 7.072463631630e-06 5.153734798431e+03
    7.920000000000e+04-7.823109626770e-08-1.215201764454e+00-8.381903171539e-08
    9.539392232148e-01 2.415000000000e+02 4.136580661760e-02-8.209984835965e-09
   -4.943063041274e-10 1.000000000000e+00 2.024000000000e+03 0.000000000000e+00
    2.400000000000e+00 0.000000000000e+00 7.450580596924e-09 4.600000000000e+01
    7.200600000000e+04 4.000000000000e+00
19 18 10 21 22  0  0.0-3.913291729987e-04 3.637978807092e-12 0.000000000000e+00
    9.500000000000e+01 5.503125000000e+01 3.745870316249e-09-6.188760475629e-01
    2.982094883919e-06 9.540149942040e-03 1.125410199165e-05 5.153610147476e+03
    7.920000000000e+04-2.980232238770e-08-4.899766444654e-02 1.695007085800e-07
    9.814164118186e-01 1.770937500000e+02 1.302642167201e+00-7.831754795452e-09
    3.907305612105e-10 1.000000000000e+00 2.024000000000e+03 0.000000000000e+00
    2.400000000000e+00 0.000000000000e+00-1.536682248116e-08 9.500000000000e+01
    7.200600000000e+04 4.000000000000e+00
31 18 10 21 22  0  0.0 8.513173088431e-05-2.614797267597e-12 0.000000000000e+00
    6.500000000000e+01 4.162500000000e+01 4.978778814693e-09-1.683665380793e-01
    2.095475792885e-06 8.977982448414e-03 3.812834620476e-06 5.153758422852e+03
    7.920000000000e+04 1.154839992523e-07-2.212095644743e+00-7.450580596924e-09
    9.618100677299e-01 3.062187500000e+02-9.489505584569e-02-8.523569326590e-09
    1.150047904111e-10 1.000000000000e+00 2.024000000000e+03 0.000000000000e+00
    2.400000000000e+00 0.000000000000e+00-1.350417733192e-08 6.500000000000e+01
    7.200600000000e+04 4.000000000000e+00
18 18 10 21 22  0  0.0 7.079262286425e-05 4.206412995700e-12 0.000000000000e+00
    5.400000000000e+01 3.418750000000e+01 5.055924885280e-09 4.955637948612e-01
    1.661479473114e-06 1.497791125439e-02 4.256144165993e-06 5.153619726181e+03
    7.920000000000e+04-1.825392246246e-07 8.546142714862e-01-1.117587089539e-08
    9.512144475913e-01 2.936250000000e+02 1.359253781896e+00-8.758579115691e-09
    2.353669468352e-10 1.000000000000e+00 2.024000000000e+03 0.000000000000e+00
    2.400000000000e+00 0.000000000000e+00-6.519258022308e-09 5.400000000000e+01
    7.200600000000e+04 4.000000000000e+00
12 18 10 21 22  0  0.0 2.980511635542e-04-2.842170943040e-12 0.000000000000e+00
    9.000000000000e+01-6.543750000000e+01 4.089813214279e-09-5.293051445524e-01
   -3.436580300331e-06 7.030392647721e-03 8.445233106613e-06 5.153756385803e+03
    7.920000000000e+04 3.725290298462e-09-1.128965040463e+00 8.381903171539e-08
    9.849996716586e-01 2.286562500000e+02 1.021672865713e+00-7.998904615055e-09
   -5.903817346261e-10 1.000000000000e+00 2.024000000000e+03 0.000000000000e+00
    2.400000000000e+00 0.000000000000e+00-1.257285475731e-08 9.000000000000e+01
    7.200600000000e+04 4.000000000000e+00
29 18 10 21 22  0  0.0 3.522811457515e-04-7.617018127348e-12 0.000000000000e+00
    7.100000000000e+01 4.075000000000e+01 3.634437103179e-09-2.832492006513e+00
    2.220273017883e-06 7.201659027487e-04 1.195445656776e-05 5.153620090485e+03
    7.920000000000e+04 0.000000000000e+00-8.484425565809e-02-4.097819328308e-08
    9.851328557205e-01 1.626875000000e+02 1.659494498230e+00-7.589601851667e-09
    2.589393572922e-10 1.000000000000e+00 2.024000000000e+03 0.000000000000e+00
    2.400000000000e+00 0.000000000000e+00-1.024454832077e-08 7.100000000000e+01
    7.200600000000e+04 4.000000000000e+00
20 18 10 21 22  0  0.0 5.176193080842e-04 5.684341886081e-13 0.000000000000e+00
    6.900000000000e+01-8.943750000000e+01 5.464870490934e-09 5.615540076642e-01
   -4.680827260017e-06 4.407268599607e-03 6.236135959625e-06 5.153672700882e+03
    7.920000000000e+04 3.539025783539e-08 1.833733231904e+00-6.519258022308e-08
    9.289021044326e-01 2.429375000000e+02 2.139472556980e+00-8.693219250333e-09
   -3.521575259173e-10 1.000000000000e+00 2.024000000000e+03 0.000000000000e+00
    2.400000000000e+00 0.000000000000e+00-8.381903171539e-09 6.900000000000e+01
    7.200600000000e+04 4.000000000000e+00
25 18 10 21 21 59 44.0-6.652018055320e-04-5.684341886081e-12 0.000000000000e+00
    7.000000000000e+00-7.075000000000e+01 4.398040338891e-09-9.010068548035e-01
   -3.755092620850e-06 7.523097563535e-03 7.752329111099e-06 5.153574584961e+03
    7.918400000000e+04 1.117587089539e-07-1.190583508376e+00 1.471489667892e-07
    9.725117260227e-01 2.354375000000e+02 8.544379503588e-01-8.133910238582e-09
   -6.339549781980e-10 1.000000000000e+00 2.024000000000e+03 0.000000000000e+00
    2.400000000000e+00 0.000000000000e+00 5.587935447693e-09 7.000000000000e+00
    7.425600000000e+04 4.000000000000e+00
25 18 10 21 23 59 44.0-6.652423180640e-04-5.684341886081e-12 0.000000000000e+00
    8.000000000000e+00-6.403125000000e+01 4.444828002070e-09 1.492687891642e-01
   -3.319233655930e-06 7.524060667492e-03 7.528811693192e-06 5.153576475143e+03
    8.638400000000e+04 1.117587089539e-08-1.190642640988e+00 8.568167686462e-08
    9.725068764492e-01 2.382187500000e+02 8.544028213070e-01-8.217127990649e-09
   -6.218116152354e-10 1.000000000000e+00 2.024000000000e+03 0.000000000000e+00
    2.400000000000e+00 0.000000000000e+00 5.587935447693e-09 8.000000000000e+00
    7.920600000000e+04 4.000000000000e+00
19 18 10 21 23 59 44.0-3.913021646440e-04 3.637978807092e-12 0.000000000000e+00
    1.000000000000e+01 4.096875000000e+01 3.790515033023e-09 4.289489584630e-01
    2.276152372360e-06 9.537977981381e-03 1.093558967113e-05 5.153605918884e+03
    8.638400000000e+04-2.533197402954e-07-4.905245219153e-02-3.911554813385e-08
    9.814187334696e-01 1.854375000000e+02 1.302698706059e+00-7.750679989789e-09
    1.582208762489e-10 1.000000000000e+00 2.024000000000e+03 0.000000000000e+00
    2.400000000000e+00 0.000000000000e+00-1.536682248116e-08 1.000000000000e+01
    7.920600000000e+04 4.000000000000e+00
 2 18 10 22  0  0  0.0-3.669830039144e-05-1.068656274583e-11 0.000000000000e+00
    6.900000000000e+01 3.500000000000e+01 4.838415825154e-09 2.093695734900e+00
    1.579523086548e-06 1.827479212079e-02 3.831461071968e-06 5.153574415207e+03
    8.640000000000e+04 2.030283212662e-07 8.407341852106e-01-3.818422555923e-07
    9.518764253367e-01 2.968125000000e+02-1.822029382563e+00-8.227128407207e-09
    3.514432104489e-10 1.000000000000e+00 2.024000000000e+03 0.000000000000e+00
    2.400000000000e+00 0.000000000000e+00-2.048909664154e-08 6.900000000000e+01
    7.920600000000e+04 4.000000000000e+00
